{
    "links": {
        "self": "http://www.neowsapp.com/rest/v1/neo/3385162?api_key=iIulBulltgU6a56xZRHN4H3l9WmuAYTsLGpBGhQ2"
    },
    "id": "3385162",
    "neo_reference_id": "3385162",
    "name": "(2007 RO133)",
    "designation": "2007 RO133",
    "nasa_jpl_url": "http://ssd.jpl.nasa.gov/sbdb.cgi?sstr=3385162",
    "absolute_magnitude_h": 24.9,
    "estimated_diameter": {
        "kilometers": {
            "estimated_diameter_min": 0.0278326768,
            "estimated_diameter_max": 0.0622357573
        },
        "meters": {
            "estimated_diameter_min": 27.8326768072,
            "estimated_diameter_max": 62.2357573367
        },
        "miles": {
            "estimated_diameter_min": 0.0172944182,
            "estimated_diameter_max": 0.0386714948
        },
        "feet": {
            "estimated_diameter_min": 91.3145593761,
            "estimated_diameter_max": 204.1855621004
        }
    },
    "is_potentially_hazardous_asteroid": false,
    "close_approach_data": [
        {
            "close_approach_date": "2007-09-13",
            "close_approach_date_full": "2007-Sep-13 06:15",
            "epoch_date_close_approach": 1189664100000,
            "relative_velocity": {
                "kilometers_per_second": "9.545193604",
                "kilometers_per_hour": "34362.6969743082",
                "miles_per_hour": "21351.6435727306"
            },
            "miss_distance": {
                "astronomical": "0.0239714318",
                "lunar": "9.3248869702",
                "kilometers": "3586075.138130266",
                "miles": "2228283.7639430308"
            },
            "orbiting_body": "Earth"
        }
    ],
    "orbital_data": {
        "orbit_id": "7",
        "orbit_determination_date": "2017-04-06 09:05:59",
        "first_observation_date": "2007-09-15",
        "last_observation_date": "2007-09-18",
        "data_arc_in_days": 3,
        "observations_used": 13,
        "orbit_uncertainty": "9",
        "minimum_orbit_intersection": ".0185215",
        "jupiter_tisserand_invariant": "3.734",
        "epoch_osculation": "2454359.5",
        "eccentricity": ".4722988158661899",
        "semi_major_axis": "1.938087340713972",
        "inclination": "12.84167769870735",
        "ascending_node_longitude": "172.1608017443856",
        "orbital_period": "985.5041196935293",
        "perihelion_distance": "1.02273098464951",
        "perihelion_argument": "185.6005390871946",
        "aphelion_distance": "2.853443696778433",
        "perihelion_time": "2454362.856176631381",
        "mean_anomaly": "358.7740045291004",
        "mean_motion": ".3652952766062026",
        "equinox": "J2000",
        "orbit_class": {
            "orbit_class_type": "AMO",
            "orbit_class_description": "Near-Earth asteroid orbits similar to that of 1221 Amor",
            "orbit_class_range": "1.017 AU < q (perihelion) < 1.3 AU"
        }
    },
    "is_sentry_object": false
}